HORYU-4                 
1 41340U 16012D   19354.80212112  .00000399  00000-0  23500-4 0  9996
2 41340  31.0062  35.7635 0013864 165.6540 194.4491 15.01379802210858
E-ST@R-II               
1 41459U 16025D   19354.82292494  .00001747  00000-0  91635-4 0  9996
2 41459  98.0994  90.6508 0167594  96.2175 265.8181 15.05927798200404
AAUSAT 4                
1 41460U 16025E   19354.82308119  .00002040  00000-0  10372-3 0  9995
2 41460  98.0965  92.3937 0157114  86.9720 274.9465 15.08013245200567
DIWATA-1                
1 41463U 98067HT  19354.54679188  .00059551  12568-4  17390-3 0  9992
2 41463  51.6275   0.2583 0002239  59.9170  84.5025 15.93182744209112
BEESAT-4                
1 41619U 16040W   19354.69086820  .00001057  00000-0  47077-4 0  9995
2 41619  97.3457  53.2700 0012907  93.1945 267.0769 15.23550671182020
CANX-7                  
1 41788U 16059F   19354.79703629  .00005097  00000-0  74262-3 0  9999
2 41788  98.2495  73.5042 0032397 151.6507 208.6479 14.75943845173295
RAVAN                   
1 41849U 16067B   19354.24859836  .00000888  00000-0  79581-4 0  9991
2 41849  97.9277  96.1981 0010282 119.3276 240.8975 14.98407043169635
CELTEE 1                
1 41850U 16067C   19354.01556942  .00000148  00000-0  18100-4 0  9999
2 41850  97.9211  94.1965 0009848 126.3944 233.8187 14.97091130169509
OPTICUBE 04             
1 41851U 16067D   19354.51813444 -.00000069  00000-0 -75239-6 0  9990
2 41851  97.9216  94.4162 0010111 123.7685 236.4501 14.96868924169562
AEROCUBE 8D             
1 41852U 16067E   19354.26270301 -.00000363  00000-0 -26385-4 0  9995
2 41852  97.9220  93.9850 0010602 126.3509 233.8692 14.96811167169508
AEROCUBE 8C             
1 41853U 16067F   19354.29004066  .00000499  00000-0  48890-4 0  9995
2 41853  97.9213  93.9332 0011253 128.4516 231.7716 14.96772324169505
PROMETHEUS 2-1          
1 41854U 16067G   19354.36170620  .00000825  00000-0  76866-4 0  9991
2 41854  97.9224  94.2290 0011676 127.4955 232.7329 14.97039633169523
PROMETHEUS 2-3          
1 41855U 16067H   19354.22961569  .00000877  00000-0  81310-4 0  9994
2 41855  97.9227  94.1188 0011867 128.1970 232.0322 14.97047886169502
INS-1B                  
1 41954U 17008G   19354.44168339  .00001052  00000-0  45853-4 0  9996
2 41954  97.3792  56.8723 0008377 206.0901 153.9915 15.24346286157946
BGUSAT                  
1 41999U 17008BD  19354.41210347  .00001815  00000-0  71701-4 0  9997
2 41999  97.3885  60.0463 0007120 216.9303 143.1446 15.26775862157473
DIDO-2                  
1 42000U 17008BE  19354.70556688  .00000688  00000-0  31139-4 0  9992
2 42000  97.3803  57.6796 0007279 225.2701 134.7945 15.24183161157381
PEASSS                  
1 42015U 17008BV  19354.74535313  .00000919  00000-0  39413-4 0  9994
2 42015  97.3819  58.9793 0005072 227.2970 132.7841 15.25223096157953
AL-FARABI 1             
1 42016U 17008BW  19353.74418253  .00001425  00000-0  58305-4 0  9991
2 42016  97.3840  58.7614 0004903 230.4691 129.6115 15.25952298157969
NAYIF-1 (EO-88)         
1 42017U 17008BX  19354.77665523  .00001198  00000-0  49408-4 0  9991
2 42017  97.3836  59.7926 0004995 225.9069 134.1759 15.25990626158144
NSIGHT                  
1 42726U 98067MF  19354.67095484  .00040733  00000-0  19850-3 0  9999
2 42726  51.6322  76.6460 0001794 192.0212 168.0748 15.81945886146986
UCLSAT                  
1 42765U 17036A   19354.69696335  .00000973  00000-0  44148-4 0  9994
2 42765  97.3280  48.5348 0009917 303.7552  56.2740 15.23115478138629
LITUANICASAT-2          
1 42768U 17036D   19354.78803403  .00001544  00000-0  67724-4 0  9993
2 42768  97.3325  48.3648 0013299 290.9418  69.0395 15.23398016138482
AALTO-1                 
1 42775U 17036L   19354.27642401  .00000595  00000-0  29371-4 0  9995
2 42775  97.3260  46.4264 0012361 295.4468  64.5488 15.21579874138276
URSA MAIOR              
1 42776U 17036M   19354.87750755  .00000637  00000-0  31110-4 0  9995
2 42776  97.3270  47.2235 0012149 292.9131  67.0823 15.21735675138373
COMPASS 2               
1 42777U 17036N   19354.40671884  .00001336  00000-0  59048-4 0  9997
2 42777  97.3319  48.4542 0010833 294.3865  65.6241 15.23380946138388
DIAMOND RED             
1 42783U 17036U   19354.68012883  .00000750  00000-0  35318-4 0  9995
2 42783  97.3280  47.9613 0010635 305.1761  54.8478 15.22502757138399
PEGASUS                 
1 42784U 17036V   19354.16155126  .00000959  00000-0  43903-4 0  9997
2 42784  97.3285  47.7703 0010532 306.4609  53.5656 15.22836444138335
DIAMOND GREEN           
1 42785U 17036W   19354.67897290  .00000764  00000-0  35904-4 0  9995
2 42785  97.3283  47.9897 0010543 305.9282  54.0976 15.22503390138380
DIAMOND BLUE            
1 42786U 17036X   19354.41524591  .00000782  00000-0  36691-4 0  9993
2 42786  97.3283  47.7295 0010406 307.3236  52.7052 15.22502499138349
NUDTSAT                 
1 42787U 17036Y   19354.16547312  .00001361  00000-0  59093-4 0  9997
2 42787  97.3319  48.7838 0011236 307.8139  52.2081 15.23967279138230
SUCHAI                  
1 42788U 17036Z   19354.70632621  .00001055  00000-0  47358-4 0  9997
2 42788  97.3291  48.7355 0010031 303.0370  56.9903 15.23315115138512
SKCUBE                  
1 42789U 17036AA  19353.68453634  .00001135  00000-0  50902-4 0  9997
2 42789  97.3288  47.6405 0009968 307.4907  52.5423 15.23187003138279
VZLUSAT-1               
1 42790U 17036AB  19353.69350751  .00001526  00000-0  65945-4 0  9993
2 42790  97.3308  48.3208 0009474 305.7399  54.2956 15.23953757138313
ROBUSTA-1B              
1 42792U 17036AD  19353.72584119  .00001130  00000-0  50438-4 0  9998
2 42792  97.3289  47.8782 0009570 308.1451  51.8923 15.23365760138304
CICERO 6                
1 42793U 17036AE  19353.90607755  .00000720  00000-0  33675-4 0  9999
2 42793  97.3268  47.6718 0008878 310.4484  49.5978 15.22845403138389
D-SAT                   
1 42794U 17036AF  19354.14372099  .00000126  00000-0  16543-4 0  9992
2 42794  97.5170  30.4987 0125008 246.3998 112.4054 14.91188136135823
CORVUS BC2              
1 42846U 17042X   19353.90852513  .00000290  00000-0  33838-4 0  9992
2 42846  97.5448 240.3252 0010159 152.6541 207.5215 14.92038875132488
CORVUS BC1              
1 42847U 17042Y   19353.91643159  .00000234  00000-0  28245-4 0  9992
2 42847  97.5449 240.4702 0009821 151.7048 208.4707 14.92139837132483
MIRATA                  
1 43015U 17073C   19354.50127255  .00000956  00000-0  80389-4 0  9992
2 43015  97.7218 268.5450 0252968 275.5195  81.7215 14.79323185112613
MAKERSAT 0              
1 43016U 17073D   19354.28022332  .00000634  00000-0  55359-4 0  9990
2 43016  97.7254 268.5339 0255392 276.8893  80.3329 14.78982634112567
ASTERIA                 
1 43020U 98067NH  19354.71410822  .00045316  00000-0  22919-3 0  9991
2 43020  51.6406  88.5589 0000843  54.7705 305.3376 15.81093205119012
DELLINGR (RBLE)         
1 43021U 98067NJ  19354.75754139  .00010200  00000-0  10173-3 0  9991
2 43021  51.6365 115.0403 0002016  92.4471 267.6755 15.66328186118664
AEROCUBE 7B (OCSD B)    
1 43042U 17071F   19353.85782852  .00003120  00000-0  80731-4 0  9994
2 43042  51.6371 231.8644 0005346 104.7814 255.3764 15.42301196114492
AEROCUBE 7C (OCSD C)    
1 43043U 17071G   19353.85844481  .00003135  00000-0  81135-4 0  9997
2 43043  51.6371 231.8832 0005567 108.5505 251.6085 15.42279976114468
CHEFSAT                 
1 43044U 17071H   19354.46117454  .00005753  00000-0  12531-3 0  9990
2 43044  51.6379 219.5976 0005490 112.9200 247.2367 15.45815376114686
ASGARDIA 1              
1 43049U 17071N   19354.37922344  .00002514  00000-0  66684-4 0  9998
2 43049  51.6382 228.6613 0003079 121.0926 239.0362 15.42394292114546
ISARA                   
1 43050U 17071P   19354.47652760  .00004321  00000-0  98444-4 0  9990
2 43050  51.6361 221.1251 0003107 121.0568 239.0724 15.45158088114653
PROPCUBE 2 (FAUNA)      
1 43052U 17071R   19354.08860968  .00002870  00000-0  73930-4 0  9990
2 43052  51.6379 228.9899 0003072 117.2325 242.8974 15.42747361114515
CORVUS BC3              
1 43118U 18004H   19354.75917461  .00000582  00000-0  27696-4 0  9991
2 43118  97.4671  61.3104 0009452 331.1947  28.8766 15.23094195107640
MICROMAS-2A             
1 43131U 18004W   19354.46389975  .00001533  00000-0  64976-4 0  9996
2 43131  97.4707  62.1719 0008374 333.3179  26.7627 15.24662948107662
SPACEBEE-4              
1 43139U 18004AE  19353.78213970  .00002205  00000-0  89382-4 0  9994
2 43139  97.4731  62.2822 0007750 338.3417  21.7492 15.25709239107605
SPACEBEE-3              
1 43140U 18004AF  19354.73785698  .00002550  00000-0  10079-3 0  9992
2 43140  97.4743  63.6731 0007365 333.3166  26.7693 15.26405075107770
SPACEBEE-2              
1 43141U 18004AG  19353.76600377  .00003326  00000-0  12970-3 0  9999
2 43141  97.4753  62.8562 0007391 336.5691  23.5210 15.26635729107638
SPACEBEE-1              
1 43142U 18004AH  19354.68795296  .00002953  00000-0  11453-3 0  9997
2 43142  97.4757  63.9465 0007304 332.8361  27.2494 15.26910319107775
CICERO 7                
1 43143U 18004AJ  19354.34209852  .00001488  00000-0  62968-4 0  9999
2 43143  97.4689  62.2589 0006847 346.7318  13.3739 15.24760605107661
GOMX-4B                 
1 43196U 18015E   19354.86059611  .00000357  00000-0  17590-4 0  9997
2 43196  97.4149 120.0942 0019699  20.7081 339.4948 15.24095069104544
GOMX-4A                 
1 43197U 18015F   19354.85677928  .00000634  00000-0  28847-4 0  9999
2 43197  97.4146 120.1355 0019733  21.4050 130.3646 15.24237164104552
1KUNS-PF                
1 43466U 98067NP  19354.77791791  .00035662  00000-0  23598-3 0  9995
2 43466  51.6332 109.8093 0000647 256.3087 103.7841 15.75185654 91992
UBAKUSAT                
1 43467U 98067NQ  19354.80231950  .00016324  00000-0  15160-3 0  9996
2 43467  51.6346 120.5343 0001449  63.9004 296.2141 15.67595952 91862
